{"type": "FeatureCollection", "features": [ {"type": "Feature", "properties": {"norad_id": 34375, "name": "IRIDIUM 33 DEB", "group": "iridium-33-debris", "lat": -10.576516538341872, "lon": 0.24787878798013802, "alt_km": 832.999889319336, "timestamp": "2025-12-20T11:30:28.761204+00:00", "meta": {"OBJECT_NAME": "IRIDIUM 33 DEB", "OBJECT_ID": "1997-051FT", "EPOCH": "2025-12-19T23:28:28.676352", "MEAN_MOTION": 14.18004758, "ECCENTRICITY": 0.0103671, "INCLINATION": 86.4321, "RA_OF_ASC_NODE": 179.7825, "ARG_OF_PERICENTER": 104.0892, "MEAN_ANOMALY": 47.2924, "EPHEMERIS_TYPE": 0, "CLASSIFICATION_TYPE": "U", "NORAD_CAT_ID": 34375, "ELEMENT_SET_NO": 999, "REV_AT_EPOCH": 86814, "BSTAR": 0.00031026, "MEAN_MOTION_DOT": 6.9e-06, "MEAN_MOTION_DDOT": 0}, "tle": {"line1": "1 34375U 97051FT  25353.97810968  .00000690  00000+0  31026-3 0  9999", "line2": "2 34375  86.4321 179.7825 0103671 104.0892  47.2924 14.18004758868142"}}, "geometry": {"type": "Point", "coordinates": [0.24787878798013802, -10.576516538341872]}}, {"type": "Feature", "properties": {"norad_id": 34376, "name": "IRIDIUM 33 DEB", "group": "iridium-33-debris", "lat": 2.8305929590783236, "lon": 3.243499012023973, "alt_km": 702.0095056413684, "timestamp": "2025-12-20T11:30:28.761213+00:00", "meta": {"OBJECT_NAME": "IRIDIUM 33 DEB", "OBJECT_ID": "1997-051FU", "EPOCH": "2025-12-20T00:00:05.781024", "MEAN_MOTION": 14.62658979, "ECCENTRICITY": 0.0028024, "INCLINATION": 86.2977, "RA_OF_ASC_NODE": 3.2756, "ARG_OF_PERICENTER": 142.6893, "MEAN_ANOMALY": 217.6272, "EPHEMERIS_TYPE": 0, "CLASSIFICATION_TYPE": "U", "NORAD_CAT_ID": 34376, "ELEMENT_SET_NO": 999, "REV_AT_EPOCH": 88113, "BSTAR": 0.00090432, "MEAN_MOTION_DOT": 4.647e-05, "MEAN_MOTION_DDOT": 0}, "tle": {"line1": "1 34376U 97051FU  25354.00006691  .00004647  00000+0  90432-3 0  9997", "line2": "2 34376  86.2977   3.2756 0028024 142.6893 217.6272 14.62658979881131"}}, "geometry": {"type": "Point", "coordinates": [3.243499012023973, 2.8305929590783236]}}, {"type": "Feature", "properties": {"norad_id": 34486, "name": "IRIDIUM 33 DEB", "group": "iridium-33-debris", "lat": 67.30003885439174, "lon": 17.12505055927702, "alt_km": 563.49489529311, "timestamp": "2025-12-20T11:30:28.761238+00:00", "meta": {"OBJECT_NAME": "IRIDIUM 33 DEB", "OBJECT_ID": "1997-051GB", "EPOCH": "2025-12-20T00:04:17.796000", "MEAN_MOTION": 14.96101928, "ECCENTRICITY": 0.0013908, "INCLINATION": 86.3929, "RA_OF_ASC_NODE": 8.6716, "ARG_OF_PERICENTER": 91.5412, "MEAN_ANOMALY": 291.3403, "EPHEMERIS_TYPE": 0, "CLASSIFICATION_TYPE": "U", "NORAD_CAT_ID": 34486, "ELEMENT_SET_NO": 999, "REV_AT_EPOCH": 89095, "BSTAR": 0.0013547, "MEAN_MOTION_DOT": 0.00015301, "MEAN_MOTION_DDOT": 0}, "tle": {"line1": "1 34486U 97051GB  25354.00298375  .00015301  00000+0  13547-2 0  9991", "line2": "2 34486  86.3929   8.6716 0013908  91.5412 291.3403 14.96101928890959"}}, "geometry": {"type": "Point", "coordinates": [17.12505055927702, 67.30003885439174]}}, {"type": "Feature", "properties": {"norad_id": 34487, "name": "IRIDIUM 33 DEB", "group": "iridium-33-debris", "lat": 54.81767452936307, "lon": 14.250013249218004, "alt_km": 727.2391162935737, "timestamp": "2025-12-20T11:30:28.761251+00:00", "meta": {"OBJECT_NAME": "IRIDIUM 33 DEB", "OBJECT_ID": "1997-051GC", "EPOCH": "2025-12-20T01:30:57.119040", "MEAN_MOTION": 14.43224791, "ECCENTRICITY": 0.003319, "INCLINATION": 86.343, "RA_OF_ASC_NODE": 9.2241, "ARG_OF_PERICENTER": 105.5974, "MEAN_ANOMALY": 307.9827, "EPHEMERIS_TYPE": 0, "CLASSIFICATION_TYPE": "U", "NORAD_CAT_ID": 34487, "ELEMENT_SET_NO": 999, "REV_AT_EPOCH": 88354, "BSTAR": 0.0001303, "MEAN_MOTION_DOT": 4.61e-06, "MEAN_MOTION_DDOT": 0}, "tle": {"line1": "1 34487U 97051GC  25354.06316110  .00000461  00000+0  13030-3 0  9995", "line2": "2 34487  86.3430   9.2241 0033190 105.5974 307.9827 14.43224791883548"}}, "geometry": {"type": "Point", "coordinates": [14.250013249218004, 54.81767452936307]}}, {"type": "Feature", "properties": {"norad_id": 34488, "name": "IRIDIUM 33 DEB", "group": "iridium-33-debris", "lat": -71.53476014544057, "lon": -69.1256479246558, "alt_km": 482.0850406123027, "timestamp": "2025-12-20T11:30:28.761262+00:00", "meta": {"OBJECT_NAME": "IRIDIUM 33 DEB", "OBJECT_ID": "1997-051GD", "EPOCH": "2025-12-20T00:50:30.763392", "MEAN_MOTION": 15.31136537, "ECCENTRICITY": 0.0011199, "INCLINATION": 86.3246, "RA_OF_ASC_NODE": 302.194, "ARG_OF_PERICENTER": 39.0214, "MEAN_ANOMALY": 321.1841, "EPHEMERIS_TYPE": 0, "CLASSIFICATION_TYPE": "U", "NORAD_CAT_ID": 34488, "ELEMENT_SET_NO": 999, "REV_AT_EPOCH": 89351, "BSTAR": 0.00297, "MEAN_MOTION_DOT": 0.00090383, "MEAN_MOTION_DDOT": 0}, "tle": {"line1": "1 34488U 97051GD  25354.03507828  .00090383  00000+0  29700-2 0  9993", "line2": "2 34488  86.3246 302.1940 0011199  39.0214 321.1841 15.31136537893518"}}, "geometry": {"type": "Point", "coordinates": [-69.1256479246558, -71.53476014544057]}}, {"type": "Feature", "properties": {"norad_id": 34492, "name": "IRIDIUM 33 DEB", "group": "iridium-33-debris", "lat": 20.81244916298738, "lon": -27.156197323129657, "alt_km": 938.0042554475158, "timestamp": "2025-12-20T11:30:28.761275+00:00", "meta": {"OBJECT_NAME": "IRIDIUM 33 DEB", "OBJECT_ID": "1997-051GH", "EPOCH": "2025-12-19T10:45:18.347328", "MEAN_MOTION": 14.25846982, "ECCENTRICITY": 0.0188646, "INCLINATION": 86.4707, "RA_OF_ASC_NODE": 331.9164, "ARG_OF_PERICENTER": 216.3823, "MEAN_ANOMALY": 273.3437, "EPHEMERIS_TYPE": 0, "CLASSIFICATION_TYPE": "U", "NORAD_CAT_ID": 34492, "ELEMENT_SET_NO": 999, "REV_AT_EPOCH": 85154, "BSTAR": 0.0022012, "MEAN_MOTION_DOT": 6.332e-05, "MEAN_MOTION_DDOT": 0}, "tle": {"line1": "1 34492U 97051GH  25353.44812902  .00006332  00000+0  22012-2 0  9994", "line2": "2 34492  86.4707 331.9164 0188646 216.3823 273.3437 14.25846982851542"}}, "geometry": {"type": "Point", "coordinates": [-27.156197323129657, 20.81244916298738]}}, {"type": "Feature", "properties": {"norad_id": 34497, "name": "IRIDIUM 33 DEB", "group": "iridium-33-debris", "lat": -54.937509547960325, "lon": 43.77254950857018, "alt_km": 751.8057119971036, "timestamp": "2025-12-20T11:30:28.761286+00:00", "meta": {"OBJECT_NAME": "IRIDIUM 33 DEB", "OBJECT_ID": "1997-051GN", "EPOCH": "2025-12-19T10:35:53.025216", "MEAN_MOTION": 14.2747197, "ECCENTRICITY": 0.0078309, "INCLINATION": 86.2774, "RA_OF_ASC_NODE": 49.5385, "ARG_OF_PERICENTER": 317.619, "MEAN_ANOMALY": 57.0969, "EPHEMERIS_TYPE": 0, "CLASSIFICATION_TYPE": "U", "NORAD_CAT_ID": 34497, "ELEMENT_SET_NO": 999, "REV_AT_EPOCH": 86979, "BSTAR": 0.00044435, "MEAN_MOTION_DOT": 1.145e-05, "MEAN_MOTION_DDOT": 0}, "tle": {"line1": "1 34497U 97051GN  25353.44158594  .00001145  00000+0  44435-3 0  9990", "line2": "2 34497  86.2774  49.5385 0078309 317.6190  57.0969 14.27471970869798"}}, "geometry": {"type": "Point", "coordinates": [43.77254950857018, -54.937509547960325]}}, {"type": "Feature", "properties": {"norad_id": 34508, "name": "IRIDIUM 33 DEB", "group": "iridium-33-debris", "lat": 48.01579826566484, "lon": 103.40646428328341, "alt_km": 767.119841604891, "timestamp": "2025-12-20T11:30:28.761297+00:00", "meta": {"OBJECT_NAME": "IRIDIUM 33 DEB", "OBJECT_ID": "1997-051GZ", "EPOCH": "2025-12-19T06:54:06.441120", "MEAN_MOTION": 14.38473954, "ECCENTRICITY": 0.0066492, "INCLINATION": 86.3709, "RA_OF_ASC_NODE": 99.8676, "ARG_OF_PERICENTER": 151.959, "MEAN_ANOMALY": 208.5216, "EPHEMERIS_TYPE": 0, "CLASSIFICATION_TYPE": "U", "NORAD_CAT_ID": 34508, "ELEMENT_SET_NO": 999, "REV_AT_EPOCH": 87403, "BSTAR": 0.00082341, "MEAN_MOTION_DOT": 2.599e-05, "MEAN_MOTION_DDOT": 0}, "tle": {"line1": "1 34508U 97051GZ  25353.28757455  .00002599  00000+0  82341-3 0  9998", "line2": "2 34508  86.3709  99.8676 0066492 151.9590 208.5216 14.38473954874031"}}, "geometry": {"type": "Point", "coordinates": [103.40646428328341, 48.01579826566484]}}, {"type": "Feature", "properties": {"norad_id": 34521, "name": "IRIDIUM 33 DEB", "group": "iridium-33-debris", "lat": -20.754040360340365, "lon": -151.48446726908108, "alt_km": 685.8430232009778, "timestamp": "2025-12-20T11:30:28.761307+00:00", "meta": {"OBJECT_NAME": "IRIDIUM 33 DEB", "OBJECT_ID": "1997-051HN", "EPOCH": "2025-12-20T04:01:46.444224", "MEAN_MOTION": 14.63423116, "ECCENTRICITY": 0.0002486, "INCLINATION": 86.3788, "RA_OF_ASC_NODE": 27.2776, "ARG_OF_PERICENTER": 181.4323, "MEAN_ANOMALY": 178.6882, "EPHEMERIS_TYPE": 0, "CLASSIFICATION_TYPE": "U", "NORAD_CAT_ID": 34521, "ELEMENT_SET_NO": 999, "REV_AT_EPOCH": 88581, "BSTAR": 0.00053689, "MEAN_MOTION_DOT": 2.798e-05, "MEAN_MOTION_DDOT": 0}, "tle": {"line1": "1 34521U 97051HN  25354.16789866  .00002798  00000+0  53689-3 0  9996", "line2": "2 34521  86.3788  27.2776 0002486 181.4323 178.6882 14.63423116885811"}}, "geometry": {"type": "Point", "coordinates": [-151.48446726908108, -20.754040360340365]}}, {"type": "Feature", "properties": {"norad_id": 34525, "name": "IRIDIUM 33 DEB", "group": "iridium-33-debris", "lat": 10.011965013807641, "lon": -137.10165309280637, "alt_km": 750.7426525679311, "timestamp": "2025-12-20T11:30:28.761317+00:00", "meta": {"OBJECT_NAME": "IRIDIUM 33 DEB", "OBJECT_ID": "1997-051HS", "EPOCH": "2025-12-20T04:21:41.243904", "MEAN_MOTION": 14.42921764, "ECCENTRICITY": 0.0006471, "INCLINATION": 86.3721, "RA_OF_ASC_NODE": 43.6672, "ARG_OF_PERICENTER": 78.1419, "MEAN_ANOMALY": 345.8375, "EPHEMERIS_TYPE": 0, "CLASSIFICATION_TYPE": "U", "NORAD_CAT_ID": 34525, "ELEMENT_SET_NO": 999, "REV_AT_EPOCH": 88195, "BSTAR": 0.0002401, "MEAN_MOTION_DOT": 8.22e-06, "MEAN_MOTION_DDOT": 0}, "tle": {"line1": "1 34525U 97051HS  25354.18172736  .00000822  00000+0  24010-3 0  9996", "line2": "2 34525  86.3721  43.6672 0006471  78.1419 345.8375 14.42921764881950"}}, "geometry": {"type": "Point", "coordinates": [-137.10165309280637, 10.011965013807641]}}]}